#dP2024  3 26  0  0  0.00000000      96 __u+U IGS20 FIT  IAC
## 2307 172800.00000000   900.00000000 60395 0.0000000000000
+  120   C06C07C08C09C10C11C12C13C14C16C19C20C21C22C23C24C25
+        C26C27C28C29C30C32C33C34C35C36C37C38C39C40C41C42C43
+        C44C45C46E02E03E04E05E07E08E09E10E11E12E13E14E15E18
+        E19E21E24E25E26E27E30E31E33E34E36G01G02G03G04G05G06
+        G07G08G09G10G11G12G13G14G15G16G17G18G19G20G21G22G23
+        G24G25G26G27G28G29G30G31G32J02J03J04R01R02R03R04R05
+        R07R08R09R11R12R13R14R15R16R17R18R19R20R21R22R24R25
+        R26  0  0  0  0  0  0  0  0  0  0  0  0  0  0  0  0
++         9  8  8  8  6  7  8  8  6  9  7  6  7  6  7  6  7
++         7  7  6  6  6  7  7  8  8  7  7  8 10  8  6  8  6
++         8  6  6  6  5  5  4  6  6  5  7  6  7  7  5  8  6
++         6  7  7  5  7  6  9  7  7  5  7  9  6  5  6  6  7
++         5  6  6  5  9  7  6  6  5  5  5  6  6  5  6  6  5
++         5  7  5  4  6  6  5  6  5  6  8  0  6  5  7  4  6
++         6  6  7  7  5  6  6  5  6  6  5  6  8  6  6  5  7
++         6  0  0  0  0  0  0  0  0  0  0  0  0  0  0  0  0
%c M  cc GPS ccc cccc cccc cccc cccc ccccc ccccc ccccc ccccc
%c cc cc ccc ccc cccc cccc cccc cccc ccccc ccccc ccccc ccccc
%f  0.0000000  0.000000000  0.00000000000  0.000000000000000
%f  0.0000000  0.000000000  0.00000000000  0.000000000000000
%i    0    0    0    0      0      0      0      0         0
%i    0    0    0    0      0      0      0      0         0
/* INFORMATION & ANALYSIS CENTER (IAC)      ULTRA-RAPID DATA
/* S/V CLOCKS ARE ALIGNED TO GNSS TIME                      
/* G:C1WC2W R:C1PC2P E:C1XC5X C:C2IC6I J:C1CC2S             
/* PCV:IGS20_2290 OL/AL:FES2004  NONE     YN ORB:CoN CLK:CoN
*  2024 03 26 14 15  0.00000000
PC06 -17245.635356  35453.707067 -15306.511420    300.178401
PC07  -4167.127775  35361.228681 -22347.392717   -879.265653
PC08  -9828.741289  18647.618081  36494.199175     29.345961
PC09 -13168.273220  34286.165957 -20794.062568   -674.419775
PC10   3050.960527  38188.674808 -16658.431161     28.535804
PC11 -18013.613147   9249.892607 -19135.262234    479.711654
PC12 -11540.318284 -11430.564990 -22656.345901   -220.552029
PC13   -654.413655  21839.286071  36233.823295    427.385022
PC14 -18882.234399  -1410.836939  20538.653565    495.517589
PC16 -21228.806822  34910.839438 -10817.068905   -419.551798
PC19  13400.887126  -8142.494709 -23052.467885   -917.137162
PC20  20924.463906   9139.022771 -16001.891364   -295.840274
PC21 -16411.179470 -22542.668129  -1471.314587   -961.650527
PC22  -2254.244753 -21810.414266 -17277.762311    -61.045786
PC23  -8835.014347  16426.934422 -20756.942386   -775.699507
PC24 -26297.270652  -2669.265222   8896.648491    949.605210
PC25 -24352.811309  10478.364597  -8693.498106    359.077844
PC26 -13108.411864 -13025.147127  20882.146304   -268.267637
PC27   6321.888500  19503.952657  18915.051186    290.129472
PC28  -6194.285349  26505.528271   6162.907466    221.486586
PC29  16473.491989 -18319.527034  13092.766088    259.757230
PC30  16241.077084   1875.798169  22601.880482    -44.594321
PC32  16496.332853  22438.266203   1613.515265   -589.919961
PC33 -13484.304869   8122.389562  23051.742324   -962.602938
PC34 -16767.912478    -65.489592 -22325.077007    398.531976
PC35   5288.395910 -26720.682210  -5982.220846    402.024756
PC36  24766.349752  -9750.285511   8419.726430     31.123303
PC37  12509.529515  13451.418724 -21008.856917   -949.273385
PC38 -18253.766791  18741.549470  33086.283120    145.120845
PC39 -22951.298911  35163.274510  -4936.665670     -7.719479
PC40  -7850.999222  31924.576930 -26248.094730    -62.543097
PC41   1493.693570  21418.324591  17874.053818   -912.551159
PC42 -21201.170527 -10587.941189  14811.954236   -445.210857
PC43 -16821.264794  17507.260531 -13793.599955     65.609044
PC44  -7119.852126 -19378.347377 -18777.487011    424.865881
PC45   8852.967112 -16294.513452  20853.555851    -77.461804
PC46  26612.630043   2142.791459  -8197.137534   -134.797427
PE02  23640.705941  -2108.968123  17687.266733    114.345813
PE03  15406.145839 -10202.813140 -23124.032515   -102.941612
PE04  -5506.653403  26956.961442  10924.929078   -358.721853
PE05  16124.532795  12240.126310 -21584.723354   4732.677863
PE07  -7196.342056 -27834.627369   7080.177240   -111.063643
PE08   5900.526077 -26587.752332 -11605.414836   -245.006622
PE09   7081.236759  27869.178772  -6983.370723   -384.386576
PE10  -6931.772185  20511.349474  20180.890522   -612.272720
PE11   4004.637044  16324.098074  24358.153233   3126.469976
PE12 -15678.893820  21241.325173  13409.046253   -965.796769
PE13  -3348.405040 -16591.640673 -24277.876128    -20.708193
PE14  -1679.977720  24050.762759  -3327.458110     77.368435
PE15  16109.990729 -21163.962521 -12968.192492    -93.438991
PE18  -6078.607806 -31013.053331  -6026.248213    479.302978
PE19 -15888.085424   7719.137021  23764.689696   -360.614117
PE21 -27043.738843 -11954.028370  -1357.530073   -585.950349
PE24  14364.584648  19817.207078 -16684.554415   -672.524018
PE25  26947.788179  12218.785362    951.700780      2.585461
PE26 -20977.616314  -2005.713331 -20786.214769    407.596528
PE27 -14756.138460 -19687.406493  16444.241245   -308.449452
PE30   6349.975422 -15648.880101  24292.498521   -134.214984
PE31  -6070.174176  15724.699746 -24333.007591    -19.218595
PE33 -25890.461749  12904.966529  -6279.297531      9.557014
PE34  25802.244410 -13310.308060   5758.906514   -102.128392
PE36  20492.628933   2428.598056  21215.955494   -204.593445
PG01   3090.948784 -17808.470461 -19690.522859    176.100247
PG02  11929.464942 -20463.400613 -11250.397082   -463.949559
PG03      1.860728 -15744.617258 -21557.582380    274.768418
PG04   2230.799603 -25763.962569  -5730.611563    324.069844
PG05 -14508.605769   9134.846608  20136.289955   -166.819775
PG06 -21083.339866   1962.642726 -16038.308498    350.915744
PG07  -7598.476324 -13775.329538  21875.580830    -93.102466
PG08   7139.296767 -21125.851550  13990.269979     81.644538
PG09  -7990.954803 -24321.936651   6888.307749    138.043158
PG10  24417.357735  10890.194621    -44.803621     -2.785011
PG11 -23540.913078  11060.086028  -5232.785559   -618.301126
PG12  -2392.523250  15729.737348 -21563.114141   -490.776105
PG13 -13131.940914  13486.598463  18440.845948    637.450123
PG14 -22773.046953 -13495.151761   3260.516504    360.378488
PG15  -4546.148050  22050.380755  13438.734664    141.727623
PG16  19303.634599  -3445.621067  17786.968873   -332.045466
PG17 -12454.531289 -15389.248672 -17209.857813    712.150975
PG18   7805.070300  12725.055697  21975.949700   -582.955999
PG19 -14759.991558  -5948.221670 -21506.290184    459.365783
PG20 -23311.097813   3146.116543  12246.907245    382.508561
PG21  15522.162247 -19661.152217  -6640.584767    129.822803
PG22 -23988.984855  -9914.597884  -4411.146932     10.033887
PG23  18213.171716  15809.541388  11364.702666    185.999499
PG24 -12415.747674  21050.160101 -10288.629448   -451.516624
PG25   9219.775035  17816.872528 -17877.313254    492.282191
PG26  25331.374690   2720.935723   7990.019856    174.810716
PG27  13175.891374 -10014.382117  20390.327735    -14.529763
PG28  19872.888194    150.103905 -17634.353091   -178.859895
PG29   4250.055112  25623.249201   5223.652380   -603.766012
PG30 -17143.903827  -5558.554208  19727.202216   -414.330896
PG31  23668.706782  -7756.731834  -9987.267136   -228.012395
PG32  14460.901997  11987.011359 -18649.829690   -616.919603
PJ02 -25588.472000  16529.461907 -24544.122860     -3.330693
PJ03 -28260.579390  31235.792084   2215.977617     -0.154468
PJ04      0.000000      0.000000      0.000000 999999.999999
PR01   8387.798835  22694.405113   8063.700400     80.728210
PR02  14561.042243  18763.018928  -9339.459456    -22.637940
PR03  13308.886722   3662.112763 -21410.355019     97.077554
PR04   4601.769098 -12842.018024 -21515.480620    229.256002
PR05  -6346.326548 -22571.333417 -10003.548814    129.009130
PR07 -12980.136476  -2639.014259  21836.434612     78.811486
PR08  -4468.625652  13166.374635  21458.949038    -74.868682
PR09 -20034.384968  -7137.923802  14161.450218    177.495839
PR11 -17787.530449   7472.497348 -16688.361562     29.990095
PR12   2390.969488  11036.297148 -22853.055024     38.257941
PR13  18022.479086   8124.334059 -16139.902721    -45.666526
PR14  25388.200652   -509.620621   2316.588664     26.269519
PR15  16541.705357  -7980.317673  17713.201287     81.035333
PR16  -2162.950614 -10891.118932  22971.176024     24.315037
PR17  15504.391936  -8751.533912  18287.514395     72.408315
PR18  15305.916039 -19942.919471   4155.515281    134.061169
PR19   9026.275155 -21288.515324 -10768.485312   -270.782523
PR20  -6131.861437  -9107.342343 -23013.876237   -110.371905
PR21 -15520.544496   8696.164027 -18273.115684    -87.635425
PR22 -15579.444405  19990.988211  -2942.116415    114.595591
PR24   7273.170651   8626.614232  22890.021401    -49.307266
PR25 -16077.758117   8117.740586 -18052.298016    -25.152559
PR26  -5087.268897  12224.177476  21822.778675    -28.245077
EOF
